NORAD_CAT_ID,OBJECT_NAME,OBJECT_TYPE,EPOCH,MEAN_MOTION,ECCENTRICITY,INCLINATION,RA_OF_ASC_NODE,ARG_OF_PERICENTER,MEAN_ANOMALY,BSTAR,MEAN_MOTION_DOT,MEAN_MOTION_DDOT,TLE_LINE0,TLE_LINE1,TLE_LINE2,SEMIMAJOR_AXIS,PERIOD,APOGEE,PERIGEE,DECAYED
52564.0,STARLINK-3959,PAYLOAD,2022-06-10 00:00:00,15.44251229,0.0001696999999999,53.2175,160.8986,37.0885,277.2484,-0.019453,-0.00830079,0.0,0 STARLINK-3959,1 52564U 22051AH  22161.00001157 -.00830079  00000-0 -19453-1 0  9990,2 52564  53.2175 160.8986 0001697  37.0885 277.2484 15.44251229  4787,6811.715999999999,93.249,434.737,432.425,0.0
52564.0,STARLINK-3959,PAYLOAD,2022-06-10 14:00:01,15.43211705,0.0001415,53.2173,158.1364,47.9739,270.0096,-0.0203,-0.00846384,0.0,0 STARLINK-3959,1 52564U 22051AH  22161.58334491 -.00846384  00000-0 -20300-1 0  9992,2 52564  53.2173 158.1364 0001415  47.9739 270.0096 15.43211705  1300,6814.775,93.312,437.604,435.675,0.0
52564.0,STARLINK-3959,PAYLOAD,2022-06-10 22:00:00,15.42611844,0.0001644,53.2173,156.5578,33.655,336.86,-0.020548,-0.00840049,0.0,0 STARLINK-3959,1 52564U 22051AH  22161.91667824 -.00840049  00000-0 -20548-1 0  9994,2 52564  53.2173 156.5578 0001644  33.6550 336.8600 15.42611844  4926,6816.541,93.348,439.527,437.286,0.0
52564.0,STARLINK-3959,PAYLOAD,2022-06-11 22:00:00,15.40827096,0.0001682,53.2174,151.8352,43.7533,120.053,-0.021908,-0.00843305,0.0,0 STARLINK-3959,1 52564U 22051AH  22162.91667824 -.00843305  00000-0 -21908-1 0  9994,2 52564  53.2174 151.8352 0001682  43.7533 120.0530 15.40827096  5078,6821.804,93.456,444.816,442.522,0.0
52564.0,STARLINK-3959,PAYLOAD,2022-06-12 14:00:01,15.39636881,0.0001574,53.2172,148.6949,48.4054,214.0159,-0.022844,-0.00845068,0.0,0 STARLINK-3959,1 52564U 22051AH  22163.58334491 -.00845068  00000-0 -22844-1 0  9997,2 52564  53.2172 148.6949 0001574  48.4054 214.0159 15.39636881  1303,6825.319,93.529,448.259,446.11,0.0
52564.0,STARLINK-3959,PAYLOAD,2022-06-12 22:00:00,15.39037983,0.0001509,53.2175,147.1252,47.1139,263.5433,-0.023131,-0.00839365,0.0,0 STARLINK-3959,1 52564U 22051AH  22163.91667824 -.00839365  00000-0 -23131-1 0  9996,2 52564  53.2175 147.1252 0001509  47.1139 263.5433 15.39037983  5233,6827.09,93.565,449.985,447.925,0.0
52564.0,STARLINK-3959,PAYLOAD,2022-06-13 14:00:01,15.37848463,0.0001489,53.2172,143.9936,41.6372,3.34,-0.024143,-0.00842287,0.0,0 STARLINK-3959,1 52564U 22051AH  22164.58334491 -.00842287  00000-0 -24143-1 0  9992,2 52564  53.2172 143.9936 0001489  41.6372   3.3400 15.37848463  1307,6830.61,93.637,453.492,451.458,0.0
52564.0,STARLINK-3959,PAYLOAD,2022-06-13 22:00:00,15.37251355,0.0001748,53.2175,142.428,36.147,54.918,-0.024532,-0.00839599,0.0,0 STARLINK-3959,1 52564U 22051AH  22164.91667824 -.00839599  00000-0 -24532-1 0  9992,2 52564  53.2175 142.4280 0001748  36.1470  54.9180 15.37251355  1307,6832.379,93.674,455.43800000000016,453.049,0.0
52564.0,STARLINK-3959,PAYLOAD,2022-06-14 14:00:01,15.36061547,0.0001614,53.2172,139.3047,49.0535,132.037,-0.025585,-0.00842233,0.0,0 STARLINK-3959,1 52564U 22051AH  22165.58334491 -.00842233  00000-0 -25585-1 0  9995,2 52564  53.2172 139.3047 0001614  49.0535 132.0370 15.36061547  1307,6835.906,93.746,458.875,456.668,0.0
52564.0,STARLINK-3959,PAYLOAD,2022-06-14 22:00:00,15.35464748,0.0001648,53.2173,137.7436,50.162,174.8686,-0.025988,-0.00839417,0.0,0 STARLINK-3959,1 52564U 22051AH  22165.91667824 -.00839417  00000-0 -25988-1 0  9998,2 52564  53.2173 137.7436 0001648  50.1620 174.8686 15.35464748  5539,6837.677,93.783,460.669,458.416,0.0
52564.0,STARLINK-3959,PAYLOAD,2022-06-15 14:00:01,15.34275541,0.0001379,53.2173,134.6286,53.6654,257.0962,-0.027163,-0.00844101,0.0,0 STARLINK-3959,1 52564U 22051AH  22166.58334491 -.00844101  00000-0 -27163-1 0  9996,2 52564  53.2173 134.6286 0001379  53.6654 257.0962 15.34275541  1306,6841.21,93.855,464.019,462.132,0.0
52564.0,STARLINK-3959,PAYLOAD,2022-06-15 22:00:00,15.33676539,0.000152,53.2174,133.0719,44.5166,308.0384,-0.027455,-0.00837581,0.0,0 STARLINK-3959,1 52564U 22051AH  22166.91667824 -.00837581  00000-0 -27455-1 0  9990,2 52564  53.2174 133.0719 0001520  44.5166 308.0384 15.33676539  5698,6842.991,93.892,465.896,463.816,0.0
52564.0,STARLINK-3959,PAYLOAD,2022-06-16 02:00:01,15.33365239,0.0001729,53.2175,132.2961,46.5635,146.6242,-0.02703,-0.00818067,0.0,0 STARLINK-3959,1 52564U 22051AH  22167.08334491 -.00818067  00000-0 -27030-1 0  9997,2 52564  53.2175 132.2961 0001729  46.5635 146.6242 15.33365239  1308,6843.917,93.911,466.966,464.599,0.0
52564.0,STARLINK-3959,PAYLOAD,2022-06-19 14:00:01,15.27125255,0.0001575,53.2176,116.0509,40.3883,4.6382,-0.033787,-0.00840082,0.0,0 STARLINK-3959,1 52564U 22051AH  22170.58334491 -.00840082  00000-0 -33787-1 0  9994,2 52564  53.2176 116.0509 0001575  40.3883   4.6382 15.27125255  1306,6862.5480000000025,94.295,485.494,483.332,0.0
52564.0,STARLINK-3959,PAYLOAD,2022-06-19 20:00:01,15.26676238,0.0001662,53.2176,114.896,40.3313,299.665,-0.034048,-0.00835444,0.0,0 STARLINK-3959,1 52564U 22051AH  22170.83334491 -.00835444  00000-0 -34048-1 0  9999,2 52564  53.2176 114.8960 0001662  40.3313 299.6650 15.26676238  6296,6863.894,94.323,486.899,484.61800000000005,0.0
52564.0,STARLINK-3959,PAYLOAD,2022-06-19 22:00:00,15.26528918,0.0001789,53.2175,114.5119,35.7049,42.5243,-0.034334,-0.00838462,0.0,0 STARLINK-3959,1 52564U 22051AH  22170.91667824 -.00838462  00000-0 -34334-1 0  9998,2 52564  53.2175 114.5119 0001789  35.7049  42.5243 15.26528918  1303,6864.335,94.332,487.42800000000005,484.972,0.0
52564.0,STARLINK-3959,PAYLOAD,2022-06-20 14:00:01,15.25336909,0.0001806,53.2175,111.4381,39.3525,103.1351,-0.035546,-0.00837323,0.0,0 STARLINK-3959,1 52564U 22051AH  22171.58334491 -.00837323  00000-0 -35546-1 0  9994,2 52564  53.2175 111.4381 0001806  39.3525 103.1351 15.25336909  1309,6867.911,94.405,491.016,488.536,0.0
52564.0,STARLINK-3959,PAYLOAD,2022-06-20 22:00:00,15.2474079,0.0001966,53.2176,109.9034,38.0641,135.4788,-0.036152,-0.00836508,0.0,0 STARLINK-3959,1 52564U 22051AH  22171.91667824 -.00836508  00000-0 -36152-1 0  9998,2 52564  53.2176 109.9034 0001966  38.0641 135.4788 15.24740790  6458,6869.701,94.442,492.916,490.215,0.0
52564.0,STARLINK-3959,PAYLOAD,2022-06-21 14:00:01,15.23550172,0.0001759,53.2175,106.8377,43.5203,189.9858,-0.037512,-0.00837394,0.0,0 STARLINK-3959,1 52564U 22051AH  22172.58334491 -.00837394  00000-0 -37512-1 0  9998,2 52564  53.2175 106.8377 0001759  43.5203 189.9858 15.23550172  1301,6873.279,94.516,496.353,493.935,0.0
52564.0,STARLINK-3959,PAYLOAD,2022-06-21 22:00:00,15.22953849,0.0001709,53.2175,105.3075,46.472,215.9419,-0.03813,-0.00836254,0.0,0 STARLINK-3959,1 52564U 22051AH  22172.91667824 -.00836254  00000-0 -38130-1 0  9995,2 52564  53.2175 105.3075 0001709  46.4720 215.9419 15.22953849  1301,6875.074000000001,94.553,498.11300000000006,495.764,0.0
52564.0,STARLINK-3959,PAYLOAD,2022-06-22 00:00:02,15.22805754,0.0001641999999999,53.2175,104.9255,40.4428,319.1491,-0.038365,-0.00837582,0.0,0 STARLINK-3959,1 52564U 22051AH  22173.00002315 -.00837582  00000-0 -38365-1 0  9999,2 52564  53.2175 104.9255 0001642  40.4428 319.1491 15.22805754  6629,6875.519,94.562,498.513,496.255,0.0
52564.0,STARLINK-3959,PAYLOAD,2022-06-22 14:00:01,15.21762883,0.0001696999999999,53.2175,102.2501,39.0511,279.0317,-0.039552,-0.00837209,0.0,0 STARLINK-3959,1 52564U 22051AH  22173.58334491 -.00837209  00000-0 -39552-1 0  9990,2 52564  53.2175 102.2501 0001697  39.0511 279.0317 15.21762883  1306,6878.66,94.627,501.692,499.358,0.0
52564.0,STARLINK-3959,PAYLOAD,2022-06-22 22:00:00,15.21167929,0.000174,53.2176,100.7241,36.8687,307.974,-0.040299,-0.00838089,0.0,0 STARLINK-3959,1 52564U 22051AH  22173.91667824 -.00838089  00000-0 -40299-1 0  9993,2 52564  53.2176 100.7241 0001740  36.8687 307.9740 15.21167929  1300,6880.454000000002,94.664,503.516,501.121,0.0
52564.0,STARLINK-3959,PAYLOAD,2022-06-23 06:00:00,15.20570166,0.000171,53.2174,99.2004,36.4722,334.4151,-0.040807,-0.00834166,0.0,0 STARLINK-3959,1 52564U 22051AH  22174.25001157 -.00834166  00000-0 -40807-1 0  9999,2 52564  53.2174  99.2004 0001710  36.4722 334.4151 15.20570166  6812,6882.257,94.701,505.299,502.945,0.0
52564.0,STARLINK-3959,PAYLOAD,2022-06-23 14:00:01,15.19975003,0.0001719,53.2175,97.6749,35.393,0.8247,-0.041629,-0.00836078,0.0,0 STARLINK-3959,1 52564U 22051AH  22174.58334491 -.00836078  00000-0 -41629-1 0  9992,2 52564  53.2175  97.6749 0001719  35.3930   0.8247 15.19975003  1305,6884.053000000001,94.738,507.101,504.735,0.0
52564.0,STARLINK-3959,PAYLOAD,2022-06-23 22:00:00,15.19381039,0.0001847,53.2175,96.1534,34.4015,26.4282,-0.042498,-0.00848491,0.0,0 STARLINK-3959,1 52564U 22051AH  22174.91667824 -.00848491  00000-0 -42498-1 0  9995,2 52564  53.2175  96.1534 0001847  34.4015  26.4282 15.19381039  1300,6885.847,94.775,508.984,506.44,0.0
52564.0,STARLINK-3959,PAYLOAD,2022-06-24 06:00:02,15.18782254,0.0001816,53.2173,94.6336,35.8623,48.9285,-0.042926,-0.00832901,0.0,0 STARLINK-3959,1 52564U 22051AH  22175.25002315 -.00832901  00000-0 -42926-1 0  9996,2 52564  53.2173  94.6336 0001816  35.8623  48.9285 15.18782254  6969,6887.656999999997,94.813,510.773,508.271,0.0
52564.0,STARLINK-3959,PAYLOAD,2022-06-24 14:00:01,15.18187362,0.0001922,53.2174,93.1124,33.1517,74.7585,-0.043789,-0.00844727,0.0,0 STARLINK-3959,1 52564U 22051AH  22175.58334491 -.00844727  00000-0 -43789-1 0  9992,2 52564  53.2174  93.1124 0001922  33.1517  74.7585 15.18187362  1302,6889.456,94.85,512.645,509.997,0.0
52564.0,STARLINK-3959,PAYLOAD,2022-06-24 22:00:01,15.17592759,0.0002016,53.2174,91.595,34.5293,95.9091,-0.04465,-0.00846534,0.0,0 STARLINK-3959,1 52564U 22051AH  22175.91668981 -.00846534  00000-0 -44650-1 0  9999,2 52564  53.2174  91.5950 0002016  34.5293  95.9091 15.17592759  1308,6891.255,94.887,514.51,511.731,0.0
